"spkid","H","diameter","albedo","rot_per","GM","BV","UB","IR","epoch","epoch_mjd","e","a","q","i","om","w","ma","ad","tp","per"
20001566,16.57,1.0,0.51,2.2726,,0.774,0.520,,2460600.5,60600,0.8270,1.078,0.187,22.80,87.95,31.43,160.86,1.97,2460417.82,409
20001620,15.27,2.56,0.290,5.22204,,0.862,0.471,,2460600.5,60600,0.3356,1.246,0.828,13.34,337.15,277.01,289.36,1.66,2460700.14,508
20001862,16.08,1.5,0.25,3.065,,0.819,0.481,,2460600.5,60600,0.5599,1.471,0.647,6.35,35.56,286.03,252.87,2.29,2460794.35,651
20001981,15.28,3.4,,5.22,,,,,2460600.5,60600,0.6505,1.776,0.621,39.82,356.80,267.84,258.81,2.93,2460843.56,865
20002101,18.72,0.6,,,,,,,2460600.5,60600,0.7642,1.874,0.442,1.32,349.43,43.69,230.82,3.31,2460936.75,937
20002102,16.00,1.649,0.245,2.384,,,,,2460600.5,60600,0.2993,1.29,0.904,64.00,94.35,61.52,78.27,1.68,2460484.14,535
20002135,18.05,,,,,,,,2460600.5,60600,0.5030,1.6,0.795,23.07,191.11,290.97,202.31,2.40,2460924.20,739
20002201,15.36,1.80,0.4328,26,,,,,2460600.5,60600,0.7107,2.179,0.630,2.52,74.87,98.37,334.42,3.73,2460683.95,1.17e+03
20002340,20.43,0.3,,3.35,,0.770,0.500,,2460600.5,60600,0.4500,0.8438,0.464,5.86,211.29,40.10,53.40,1.22,2460558.50,283
20003122,14.10,4.9,0.231,2.3581,,,,,2460600.5,60600,0.4231,1.769,1.021,22.14,336.05,27.90,0.67,2.52,2460598.89,859
20003200,14.40,6.25,0.1066,3.604,,,,,2460600.5,60600,0.8898,1.271,0.140,22.31,265.10,322.31,248.98,2.40,2460762.00,524
20003361,19.56,0.3,0.357,3.5327,,1.022,0.503,,2460600.5,60600,0.3229,1.21,0.820,2.66,188.68,302.34,24.54,1.60,2460567.34,486
20003362,18.52,0.7,0.21,,,,,,2460600.5,60600,0.4685,0.9895,0.526,9.92,152.40,55.09,359.85,1.45,2460600.65,360
20003671,16.50,1.5,0.16,2.7053,,,,,2460600.5,60600,0.5420,2.2,1.008,13.54,82.05,204.33,131.35,3.39,2460165.58,1.19e+03
20003757,19.04,0.5,0.18,9.012,,0.859,0.522,,2460600.5,60600,0.4459,1.834,1.017,3.87,74.93,17.24,293.70,2.65,2460767.65,908
20004015,16.19,4,0.05,3.5736,,0.666,0.279,,2460600.5,60600,0.6312,2.626,0.968,2.80,266.73,95.52,181.75,4.28,2461369.95,1.55e+03
20004034,18.52,0.42,0.52,44.4,,,,,2460600.5,60600,0.4441,1.06,0.589,11.17,157.89,296.70,260.40,1.53,2460710.71,398
20004179,15.31,5.4,0.405,176.,,,,,2460600.5,60600,0.6248,2.543,0.954,0.45,125.36,277.88,339.68,4.13,2460684.14,1.48e+03
20004183,14.17,3.651,0.097,3.5595,,,,,2460600.5,60600,0.6361,1.981,0.721,6.67,294.35,237.02,175.91,3.24,2460102.94,1.02e+03
20004450,17.28,,,56.48,,,,,2460600.5,60600,0.5866,1.443,0.596,5.52,311.70,291.94,192.17,2.29,2460895.52,633
20004486,15.61,1.849,0.297,67.5,,,,,2460600.5,60600,0.6620,2.205,0.745,3.04,82.18,169.12,156.61,3.67,2460080.09,1.2e+03
20004581,20.74,,,8.008,,,,,2460600.5,60600,0.3570,1.023,0.658,4.92,180.20,255.38,212.12,1.39,2460755.66,378
20004660,18.75,0.33,0.55,15.1749,,,,,2460600.5,60600,0.3587,1.485,0.952,1.45,313.11,159.54,191.96,2.02,2460909.06,661
20004769,17.50,1.4,0.092,4.095,,,,,2460600.5,60600,0.4832,1.063,0.549,8.88,325.51,121.44,324.11,1.58,2460640.41,400
20004953,14.94,,,14.218,,,,,2460600.5,60600,0.6574,1.621,0.555,24.38,77.53,77.93,285.02,2.69,2460757.54,754
20005011,16.70,,,56.3,,,,,2460600.5,60600,0.5001,1.636,0.818,7.41,10.63,105.94,173.66,2.45,2460231.78,764
20005189,17.84,,,6.653,,,,,2460600.5,60600,0.4783,1.552,0.809,3.58,135.05,159.95,257.64,2.29,2460801.21,706
20005604,17.38,0.55,0.48,5.3375,,,,,2460600.5,60600,0.4061,0.9286,0.552,4.71,311.89,82.68,269.92,1.31,2460682.29,327
20005693,16.79,,,2.496,,,,,2460600.5,60600,0.5851,1.271,0.527,5.06,96.98,258.98,203.14,2.01,2460828.42,523
20006037,18.87,,,2.7602,,,,,2460600.5,60600,0.4997,1.272,0.636,3.51,182.18,242.32,249.72,1.91,2460760.94,524
20006239,18.61,,,3.5558,,,,,2460600.5,60600,0.4126,1.151,0.676,3.94,344.53,239.77,224.50,1.63,2460770.27,451
20006489,19.22,0.53,0.151,6.026,,,,,2460600.5,60600,0.6151,2.484,0.956,2.27,209.42,68.66,151.88,4.01,2459997.28,1.43e+03
20006491,18.72,,,2.69,,,,,2460600.5,60600,0.5917,2.506,1.023,6.00,301.00,324.73,142.22,3.99,2460027.95,1.45e+03
20007335,17.70,1.8,0.448,2.58988,,,,,2460600.5,60600,0.4846,1.772,0.913,15.17,61.28,232.27,349.17,2.63,2460626.41,862
20007341,16.96,0.982,0.235,4.2096,,,,,2460600.5,60600,0.5061,1.841,0.909,5.41,294.73,173.48,37.89,2.77,2460504.43,913
20007482,16.66,1.052,0.277,2.5999,,,,,2460600.5,60600,0.3294,1.349,0.904,33.47,117.85,47.49,246.56,1.79,2460780.76,572
20007753,18.02,,,42.2,,,,,2460600.5,60600,0.4817,1.467,0.761,3.12,73.39,280.08,95.85,2.17,2460427.66,649
20007822,17.34,1.602,0.075,2.3896,,,,,2460600.5,60600,0.1646,1.123,0.938,37.12,156.84,249.45,182.35,1.31,2460814.92,435
20008014,18.88,0.7,,50.09,,,,,2460600.5,60600,0.4560,1.747,0.951,1.87,209.84,114.73,291.48,2.54,2460761.05,844
20008566,16.48,1.568,0.217,4.845,,,,,2460600.5,60600,0.4302,1.506,0.858,37.97,164.12,125.13,90.11,2.15,2460431.47,675
20009856,17.11,1.0,0.3,3.045,,,,,2460600.5,60600,0.6258,2.242,0.839,9.83,168.11,116.18,314.61,3.65,2460755.13,1.23e+03
20010115,17.12,0.938,0.318,7.319,,,,,2460600.5,60600,0.3250,1.249,0.843,15.32,8.89,233.69,84.54,1.65,2460480.83,510
20011500,18.37,0.738,0.142,73,,,,,2460600.5,60600,0.3558,1.08,0.696,10.31,234.39,289.52,323.61,1.46,2460641.94,410
20012538,15.97,1.663,0.232,2.575,,,,,2460600.5,60600,0.4058,1.542,0.916,24.54,220.69,321.79,317.04,2.17,2460683.93,699
20012923,15.82,2.060,0.199,3.893,,,,,2460600.5,60600,0.4918,1.963,0.998,5.30,168.17,147.13,51.56,2.93,2460456.63,1e+03
20013651,17.89,0.562,0.511,33.644,,,,,2460600.5,60600,0.3057,1.335,0.927,17.25,116.63,133.86,262.62,1.74,2460752.98,564
20014827,18.75,0.9,,,,0.684,0.492,,2460600.5,60600,0.6649,2.841,0.952,1.98,57.93,238.19,21.63,4.73,2460495.41,1.75e+03
20016960,14.42,,,2.8985,,,,,2460600.5,60600,0.8590,2.201,0.310,17.52,260.15,243.25,308.68,4.09,2460770.48,1.19e+03
20020425,20.51,,,,,,,,2460600.5,60600,0.4764,1.565,0.819,6.99,227.25,296.32,32.70,2.31,2460535.55,715
20022753,17.69,,,10.24,,,,,2460600.5,60600,0.5699,1.219,0.524,3.20,307.36,324.80,165.33,1.91,2460374.75,492
20023187,16.06,,,2.5325,,,,,2460600.5,60600,0.5893,1.847,0.759,51.33,164.29,293.53,167.50,2.94,2460173.89,917
20025143,19.26,0.33,,12.132,2.1e-9,,,,2460600.5,60600,0.2803,1.324,0.953,1.62,69.08,162.82,142.57,1.70,2460380.09,557
20026663,18.19,,,2.572,,,,,2460600.5,60600,0.4717,1.546,0.817,13.53,303.59,231.23,108.78,2.28,2460388.33,702
20027002,18.31,,,,,,,,2460600.5,60600,0.4333,1.744,0.988,8.70,130.34,0.82,203.62,2.50,2460965.86,841
20029075,17.29,1.3,0.070,2.1216,,,,,2460600.5,60600,0.5077,1.699,0.836,12.16,356.59,224.76,223.31,2.56,2460907.61,809
20031669,16.09,,,5.807,,,,,2460600.5,60600,0.5776,2.137,0.903,9.54,78.77,39.10,97.39,3.37,2460291.76,1.14e+03
20033342,18.02,0.432,0.654,3.697,,,,,2460600.5,60600,0.4177,0.7187,0.419,7.37,81.66,167.52,27.50,1.02,2460583.50,223
20035107,16.91,0.929,0.408,2.6236,,,,,2460600.5,60600,0.1442,1.137,0.973,13.91,139.34,206.96,100.55,1.30,2460476.76,443
20035396,17.01,0.704,0.772,3.259,,,,,2460600.5,60600,0.4837,1.442,0.745,4.10,213.65,103.04,272.13,2.14,2460754.90,633
20037638,19.28,,,3.5301,,,,,2460600.5,60600,0.5199,1.913,0.918,5.08,145.56,323.20,236.56,2.91,2460931.89,966
20037655,17.85,,,2.6556,,,,,2460600.5,60600,0.7525,1.478,0.366,18.03,139.52,303.90,254.99,2.59,2460791.90,656
20038071,19.57,,,216,,,,,2460600.5,60600,0.5075,2.089,1.029,12.74,195.49,8.81,162.10,3.15,2460103.79,1.1e+03
20039572,16.56,1.554,0.184,,,,,,2460600.5,60600,0.4927,2.036,1.033,10.03,313.50,344.85,205.80,3.04,2461055.07,1.06e+03
20041429,20.66,0.204,0.267,,,,,,2460600.5,60600,0.5553,1.593,0.708,2.17,351.91,297.20,42.91,2.48,2460512.99,734
20052760,17.50,1.0,,14.28,,,,,2460600.5,60600,0.6233,2.409,0.907,2.43,338.68,20.37,347.09,3.91,2460649.47,1.37e+03
20052768,16.04,1.75,,4.112,,,,,2460600.5,60600,0.5755,2.38,1.010,5.88,26.94,174.59,81.21,3.75,2460297.98,1.34e+03
20053319,15.36,7.,,143.7,,,,,2460600.5,60600,0.6414,2.724,0.977,13.84,133.62,166.80,228.77,4.47,2461198.95,1.64e+03
20053426,17.19,,,5.03,,,,,2460600.5,60600,0.5391,1.923,0.886,22.77,239.06,43.36,167.90,2.96,2460146.17,974
20053429,18.94,,,,,,,,2460600.5,60600,0.6410,2.022,0.726,26.78,199.16,64.09,281.57,3.32,2460829.24,1.05e+03
20053550,19.06,,,,,,,,2460600.5,60600,0.4196,1.495,0.868,7.17,313.14,324.95,67.25,2.12,2460475.74,668
20053789,17.34,0.843,0.222,43,,,,,2460600.5,60600,0.2692,1.371,1.002,40.78,190.02,218.35,236.89,1.74,2460800.93,586
20065679,19.62,0.918,0.033,7.746,,,,,2460600.5,60600,0.2647,0.9148,0.673,1.30,178.08,15.01,195.92,1.16,2460746.16,320
20065690,19.06,,,7.1125,,,,,2460600.5,60600,0.3632,1.428,0.909,11.14,180.10,63.37,212.30,1.95,2460856.18,623
20065717,20.87,,,20.33,,,,,2460600.5,60600,0.2810,1.395,1.003,2.81,174.75,290.95,104.62,1.79,2460425.54,602
20065803,18.11,0.78,,2.2593,,,,,2460600.5,60600,0.3833,1.643,1.013,3.41,72.99,319.60,339.93,2.27,2460643.37,769
20065909,19.30,,,3,,,,,2460600.5,60600,0.5397,1.091,0.502,3.56,108.59,284.51,196.93,1.68,2460789.06,416
20066391,16.64,1.317,,2.7645,,,,,2460600.5,60600,0.6884,0.6424,0.200,38.88,244.90,192.65,296.90,1.08,2460633.46,188
20067367,17.12,,,,,,,,2460600.5,60600,0.2127,1.308,1.030,9.02,264.51,184.84,248.94,1.59,2460769.16,547
20067381,19.80,,,,,,,,2460600.5,60600,0.5430,1.321,0.604,10.67,294.84,266.96,38.01,2.04,2460541.97,554
20068216,16.62,0.994,0.449,2.429,,,,,2460600.5,60600,0.3267,1.32,0.889,17.99,18.13,48.74,301.79,1.75,2460690.05,554
20068346,16.93,0.736,0.291,4.987,,,,,2460600.5,60600,0.4166,1.507,0.879,16.70,219.37,140.29,133.79,2.14,2460349.29,676
20068347,19.92,,,6.354,,,,,2460600.5,60600,0.3799,0.9616,0.596,17.13,245.86,243.82,352.38,1.33,2460607.79,344
20068372,18.97,,,,,,,,2460600.5,60600,0.4160,1.618,0.945,8.11,252.96,322.33,157.97,2.29,2460270.62,752
20068548,16.57,1.182,0.289,,,,,,2460600.5,60600,0.4368,1.707,0.961,22.72,302.02,24.71,186.50,2.45,2460993.10,815
20068950,16.39,1.650,0.178,45.24,,,,,2460600.5,60600,0.3443,1.057,0.693,25.15,236.21,255.57,54.57,1.42,2460540.33,397
20069230,17.68,,,13.894,,,,,2460600.5,60600,0.6239,1.655,0.622,6.07,34.05,92.90,279.39,2.69,2460774.62,778
